start=new Date('2023-02-09T00:00:00.000Z').valueOf();
sats=[{"EPOCH":"2023-02-08T10:38:02.293440","EPHEMERIS_TYPE":"0","MEAN_ANOMALY":"270.9174","TLE_LINE2":"2 51982  53.2168  50.5533 0000926  89.1924 270.9174 15.08807094 51180","APOAPSIS":"540.487","MEAN_ELEMENT_THEORY":"SGP4","RCS_SIZE":"LARGE","MEAN_MOTION":"15.08807094","TIME_SYSTEM":"UTC","SEMIMAJOR_AXIS":"6917.981","OBJECT_ID":"2022-025AC","CENTER_NAME":"EARTH","BSTAR":"-0.00049136000000","MEAN_MOTION_DOT":"-0.00008092","OBJECT_NAME":"STARLINK-3650","PERIOD":"95.440","NORAD_CAT_ID":"51982","LAUNCH_DATE":"2022-03-09","SITE":"AFETR","ECCENTRICITY":"0.00009260","CLASSIFICATION_TYPE":"U","PERIAPSIS":"539.205","COUNTRY_CODE":"US","REF_FRAME":"TEME","OBJECT_TYPE":"PAYLOAD","ELEMENT_SET_NO":"999","GP_ID":"224824612","REV_AT_EPOCH":"5118","FILE":"3780324","RA_OF_ASC_NODE":"50.5533","MEAN_MOTION_DDOT":"0.0000000000000","ARG_OF_PERICENTER":"89.1924","DECAY_DATE":null,"TLE_LINE1":"1 51982U 22025AC  23039.44308210 -.00008092  00000-0 -49136-3 0  9992","INCLINATION":"53.2168"},{"INCLINATION":"53.2177","TLE_LINE1":"1 51983U 22025AD  23039.72274409  .00015685  00000-0  10012-2 0  9990","MEAN_MOTION_DDOT":"0.0000000000000","ARG_OF_PERICENTER":"79.7967","DECAY_DATE":null,"RA_OF_ASC_NODE":"49.2908","ELEMENT_SET_NO":"999","REV_AT_EPOCH":"5122","FILE":"3780893","GP_ID":"224859423","OBJECT_TYPE":"PAYLOAD","REF_FRAME":"TEME","COUNTRY_CODE":"US","SITE":"AFETR","ECCENTRICITY":"0.00008590","PERIAPSIS":"539.127","CLASSIFICATION_TYPE":"U","NORAD_CAT_ID":"51983","PERIOD":"95.437","LAUNCH_DATE":"2022-03-09","OBJECT_NAME":"STARLINK-3655","MEAN_MOTION_DOT":"0.00015685","TIME_SYSTEM":"UTC","MEAN_MOTION":"15.08847874","BSTAR":"0.00100120000000","CENTER_NAME":"EARTH","SEMIMAJOR_AXIS":"6917.856","OBJECT_ID":"2022-025AD","TLE_LINE2":"2 51983  53.2177  49.2908 0000859  79.7967 280.3122 15.08847874 51222","RCS_SIZE":"LARGE","APOAPSIS":"540.316","MEAN_ELEMENT_THEORY":"SGP4","MEAN_ANOMALY":"280.3122","EPOCH":"2023-02-08T17:20:45.089376","EPHEMERIS_TYPE":"0"},{"TLE_LINE1":"1 51984U 22025AE  23039.42098435  .00002668  00000-0  18561-3 0  9996","INCLINATION":"53.2145","DECAY_DATE":null,"ARG_OF_PERICENTER":"92.6575","MEAN_MOTION_DDOT":"0.0000000000000","RA_OF_ASC_NODE":"50.6543","GP_ID":"224823111","REV_AT_EPOCH":"5118","FILE":"3780324","ELEMENT_SET_NO":"999","REF_FRAME":"TEME","OBJECT_TYPE":"PAYLOAD","COUNTRY_CODE":"US","PERIAPSIS":"538.814","CLASSIFICATION_TYPE":"U","SITE":"AFETR","ECCENTRICITY":"0.00013100","LAUNCH_DATE":"2022-03-09","PERIOD":"95.437","NORAD_CAT_ID":"51984","OBJECT_NAME":"STARLINK-3664","MEAN_MOTION_DOT":"0.00002668","CENTER_NAME":"EARTH","SEMIMAJOR_AXIS":"6917.855","OBJECT_ID":"2022-025AE","BSTAR":"0.00018561000000","MEAN_MOTION":"15.08848288","TIME_SYSTEM":"UTC","APOAPSIS":"540.626","MEAN_ELEMENT_THEORY":"SGP4","RCS_SIZE":"LARGE","TLE_LINE2":"2 51984  53.2145  50.6543 0001310  92.6575 267.4567 15.08848288 51185","MEAN_ANOMALY":"267.4567","EPHEMERIS_TYPE":"0","EPOCH":"2023-02-08T10:06:13.047840"},{"MEAN_MOTION_DOT":"0.00026042","OBJECT_NAME":"STARLINK-3651","LAUNCH_DATE":"2022-03-09","PERIOD":"95.435","NORAD_CAT_ID":"51985","CLASSIFICATION_TYPE":"U","PERIAPSIS":"538.536","ECCENTRICITY":"0.00015400","SITE":"AFETR","EPHEMERIS_TYPE":"0","EPOCH":"2023-02-08T12:23:59.837856","MEAN_ANOMALY":"264.2731","MEAN_ELEMENT_THEORY":"SGP4","APOAPSIS":"540.667","RCS_SIZE":"LARGE","TLE_LINE2":"2 51985  53.2157  50.2234 0001540  95.8437 264.2731 15.08887054 51192","OBJECT_ID":"2022-025AF","SEMIMAJOR_AXIS":"6917.737","CENTER_NAME":"EARTH","BSTAR":"0.00164620000000","MEAN_MOTION":"15.08887054","TIME_SYSTEM":"UTC","DECAY_DATE":null,"MEAN_MOTION_DDOT":"0.0000000000000","ARG_OF_PERICENTER":"95.8437","TLE_LINE1":"1 51985U 22025AF  23039.51666479  .00026042  00000-0  16462-2 0  9995","INCLINATION":"53.2157","COUNTRY_CODE":"US","REF_FRAME":"TEME","OBJECT_TYPE":"PAYLOAD","GP_ID":"224823361","FILE":"3780324","REV_AT_EPOCH":"5119","ELEMENT_SET_NO":"999","RA_OF_ASC_NODE":"50.2234"},{"DECAY_DATE":null,"ARG_OF_PERICENTER":"94.4685","MEAN_MOTION_DDOT":"0.0000000000000","INCLINATION":"53.2142","TLE_LINE1":"1 51986U 22025AG  23039.41362042  .00002613  00000-0  18211-3 0  9997","FILE":"3780324","REV_AT_EPOCH":"5118","GP_ID":"224824113","ELEMENT_SET_NO":"999","RA_OF_ASC_NODE":"50.6891","COUNTRY_CODE":"US","OBJECT_TYPE":"PAYLOAD","REF_FRAME":"TEME","LAUNCH_DATE":"2022-03-09","NORAD_CAT_ID":"51986","PERIOD":"95.437","CLASSIFICATION_TYPE":"U","PERIAPSIS":"538.737","SITE":"AFETR","ECCENTRICITY":"0.00014010","MEAN_MOTION_DOT":"0.00002613","OBJECT_NAME":"STARLINK-3645","RCS_SIZE":"LARGE","APOAPSIS":"540.675","MEAN_ELEMENT_THEORY":"SGP4","TLE_LINE2":"2 51986  53.2142  50.6891 0001401  94.4685 265.6468 15.08852962 51187","BSTAR":"0.00018211000000","SEMIMAJOR_AXIS":"6917.841","CENTER_NAME":"EARTH","OBJECT_ID":"2022-025AG","TIME_SYSTEM":"UTC","MEAN_MOTION":"15.08852962","EPHEMERIS_TYPE":"0","EPOCH":"2023-02-08T09:55:36.804288","MEAN_ANOMALY":"265.6468"},{"MEAN_MOTION_DDOT":"0.0000000000000","ARG_OF_PERICENTER":"99.6003","DECAY_DATE":null,"INCLINATION":"53.2149","TLE_LINE1":"1 51987U 22025AH  23039.49458363  .00004808  00000-0  31988-3 0  9992","ELEMENT_SET_NO":"999","REV_AT_EPOCH":"5119","FILE":"3780324","GP_ID":"224824863","RA_OF_ASC_NODE":"50.3266","COUNTRY_CODE":"US","OBJECT_TYPE":"PAYLOAD","REF_FRAME":"TEME","NORAD_CAT_ID":"51987","PERIOD":"95.437","LAUNCH_DATE":"2022-03-09","SITE":"AFETR","ECCENTRICITY":"0.00012640","PERIAPSIS":"538.837","CLASSIFICATION_TYPE":"U","MEAN_MOTION_DOT":"0.00004808","OBJECT_NAME":"STARLINK-3644","TLE_LINE2":"2 51987  53.2149  50.3266 0001264  99.6003 260.5132 15.08851128 51192","RCS_SIZE":"LARGE","APOAPSIS":"540.586","MEAN_ELEMENT_THEORY":"SGP4","TIME_SYSTEM":"UTC","MEAN_MOTION":"15.08851128","BSTAR":"0.00031988000000","OBJECT_ID":"2022-025AH","SEMIMAJOR_AXIS":"6917.846","CENTER_NAME":"EARTH","EPOCH":"2023-02-08T11:52:12.025632","EPHEMERIS_TYPE":"0","MEAN_ANOMALY":"260.5132"},{"REF_FRAME":"TEME","OBJECT_TYPE":"PAYLOAD","COUNTRY_CODE":"US","RA_OF_ASC_NODE":"50.7037","GP_ID":"224823611","REV_AT_EPOCH":"5118","FILE":"3780324","ELEMENT_SET_NO":"999","TLE_LINE1":"1 51988U 22025AJ  23039.40994169  .00001693  00000-0  12443-3 0  9997","INCLINATION":"53.2157","DECAY_DATE":null,"MEAN_MOTION_DDOT":"0.0000000000000","ARG_OF_PERICENTER":"93.0529","MEAN_ANOMALY":"267.0607","EPHEMERIS_TYPE":"0","EPOCH":"2023-02-08T09:50:18.962016","SEMIMAJOR_AXIS":"6917.851","CENTER_NAME":"EARTH","OBJECT_ID":"2022-025AJ","BSTAR":"0.00012443000000","MEAN_MOTION":"15.08849541","TIME_SYSTEM":"UTC","MEAN_ELEMENT_THEORY":"SGP4","APOAPSIS":"540.591","RCS_SIZE":"LARGE","TLE_LINE2":"2 51988  53.2157  50.7037 0001264  93.0529 267.0607 15.08849541 51187","OBJECT_NAME":"STARLINK-3640","MEAN_MOTION_DOT":"0.00001693","CLASSIFICATION_TYPE":"U","PERIAPSIS":"538.842","ECCENTRICITY":"0.00012640","SITE":"AFETR","LAUNCH_DATE":"2022-03-09","PERIOD":"95.437","NORAD_CAT_ID":"51988"},{"OBJECT_TYPE":"PAYLOAD","REF_FRAME":"TEME","COUNTRY_CODE":"US","RA_OF_ASC_NODE":"51.2266","FILE":"3780324","REV_AT_EPOCH":"5116","GP_ID":"224823861","ELEMENT_SET_NO":"999","INCLINATION":"53.2136","TLE_LINE1":"1 51989U 22025AK  23039.29218399  .00003256  00000-0  22255-3 0  9998","DECAY_DATE":null,"MEAN_MOTION_DDOT":"0.0000000000000","ARG_OF_PERICENTER":"96.0773","MEAN_ANOMALY":"264.0360","EPHEMERIS_TYPE":"0","EPOCH":"2023-02-08T07:00:44.696736","BSTAR":"0.00022255000000","SEMIMAJOR_AXIS":"6917.863","OBJECT_ID":"2022-025AK","CENTER_NAME":"EARTH","TIME_SYSTEM":"UTC","MEAN_MOTION":"15.08845635","RCS_SIZE":"LARGE","APOAPSIS":"540.583","MEAN_ELEMENT_THEORY":"SGP4","TLE_LINE2":"2 51989  53.2136  51.2266 0001235  96.0773 264.0360 15.08845635 51168","OBJECT_NAME":"STARLINK-3642","MEAN_MOTION_DOT":"0.00003256","CLASSIFICATION_TYPE":"U","PERIAPSIS":"538.874","SITE":"AFETR","ECCENTRICITY":"0.00012350","LAUNCH_DATE":"2022-03-09","NORAD_CAT_ID":"51989","PERIOD":"95.437"},{"MEAN_ANOMALY":"261.1545","EPOCH":"2023-02-08T11:01:49.437408","EPHEMERIS_TYPE":"0","MEAN_MOTION":"15.08882597","TIME_SYSTEM":"UTC","SEMIMAJOR_AXIS":"6917.750","OBJECT_ID":"2022-025AL","CENTER_NAME":"EARTH","BSTAR":"0.00068482000000","TLE_LINE2":"2 51990  53.2175  30.4758 0001103  98.9572 261.1545 15.08882597 52566","APOAPSIS":"540.378","MEAN_ELEMENT_THEORY":"SGP4","RCS_SIZE":"LARGE","OBJECT_NAME":"STARLINK-3657","MEAN_MOTION_DOT":"0.00010640","SITE":"AFETR","ECCENTRICITY":"0.00011030","CLASSIFICATION_TYPE":"U","PERIAPSIS":"538.852","PERIOD":"95.435","NORAD_CAT_ID":"51990","LAUNCH_DATE":"2022-03-09","REF_FRAME":"TEME","OBJECT_TYPE":"PAYLOAD","COUNTRY_CODE":"US","RA_OF_ASC_NODE":"30.4758","ELEMENT_SET_NO":"999","GP_ID":"224762242","FILE":"3778785","REV_AT_EPOCH":"5256","TLE_LINE1":"1 51990U 22025AL  23039.45959997  .00010640  00000-0  68482-3 0  9991","INCLINATION":"53.2175","MEAN_MOTION_DDOT":"0.0000000000000","ARG_OF_PERICENTER":"98.9572","DECAY_DATE":null},{"LAUNCH_DATE":"2022-03-09","NORAD_CAT_ID":"51991","PERIOD":"95.437","PERIAPSIS":"538.734","CLASSIFICATION_TYPE":"U","SITE":"AFETR","ECCENTRICITY":"0.00014090","MEAN_MOTION_DOT":"0.00003304","OBJECT_NAME":"STARLINK-3652","RCS_SIZE":"LARGE","APOAPSIS":"540.684","MEAN_ELEMENT_THEORY":"SGP4","TLE_LINE2":"2 51991  53.2148  50.6720 0001409  91.9334 268.1819 15.08851874 51180","BSTAR":"0.00022554000000","SEMIMAJOR_AXIS":"6917.844","OBJECT_ID":"2022-025AM","CENTER_NAME":"EARTH","TIME_SYSTEM":"UTC","MEAN_MOTION":"15.08851874","EPHEMERIS_TYPE":"0","EPOCH":"2023-02-08T10:00:54.847008","MEAN_ANOMALY":"268.1819","DECAY_DATE":null,"MEAN_MOTION_DDOT":"0.0000000000000","ARG_OF_PERICENTER":"91.9334","INCLINATION":"53.2148","TLE_LINE1":"1 51991U 22025AM  23039.41730147  .00003304  00000-0  22554-3 0  9991","FILE":"3780324","REV_AT_EPOCH":"5118","GP_ID":"224824364","ELEMENT_SET_NO":"999","RA_OF_ASC_NODE":"50.6720","COUNTRY_CODE":"US","OBJECT_TYPE":"PAYLOAD","REF_FRAME":"TEME"}];
